{
  "type": "FeatureCollection",
  "features": [
    {
      "type": "Feature",
      "properties": {
        "norad_id": 66174,
        "name": "HTV-X1",
        "group": "stations",
        "lat": 35.17778495786915,
        "lon": 177.68680221826293,
        "alt_km": 415.62369813831174,
        "timestamp": "2025-12-12T11:38:30.189891+00:00",
        "meta_object_name": "HTV-X1",
        "meta_object_id": "2025-241A",
        "meta_epoch": "2025-12-11T21:30:28.324224",
        "meta_mean_motion": 15.49521399,
        "meta_eccentricity": 0.00032978,
        "meta_inclination": 51.6307,
        "meta_ra_of_asc_node": 146.6565,
        "meta_arg_of_pericenter": 237.1442,
        "meta_mean_anomaly": 122.9229,
        "meta_ephemeris_type": 0,
        "meta_classification_type": "U",
        "meta_norad_cat_id": 66174,
        "meta_element_set_no": 999,
        "meta_rev_at_epoch": 51,
        "meta_bstar": 0.00026380738,
        "meta_mean_motion_dot": 0.00014378,
        "meta_mean_motion_ddot": 0,
        "tle_line1": "1 66174U 25241A   25345.89616116  .00014378  00000+0  26381-3 0  9990",
        "tle_line2": "2 66174  51.6307 146.6565 0003297 237.1442 122.9229 15.49521399   516"
      },
      "geometry": {
        "type": "Point",
        "coordinates": [
          177.68680221826293,
          35.17778495786915
        ]
      }
    },
    {
      "type": "Feature",
      "properties": {
        "norad_id": 66515,
        "name": "SZ-21 MODULE",
        "group": "stations",
        "lat": 32.817232108981074,
        "lon": 64.4859782456407,
        "alt_km": 379.0345574501207,
        "timestamp": "2025-12-12T11:38:30.189901+00:00",
        "meta_object_name": "SZ-21 MODULE",
        "meta_object_id": "2025-246C",
        "meta_epoch": "2025-12-12T03:44:14.440416",
        "meta_mean_motion": 15.62436812,
        "meta_eccentricity": 0.000633,
        "meta_inclination": 41.4775,
        "meta_ra_of_asc_node": 19.6084,
        "meta_arg_of_pericenter": 257.16,
        "meta_mean_anomaly": 102.8532,
        "meta_ephemeris_type": 0,
        "meta_classification_type": "U",
        "meta_norad_cat_id": 66515,
        "meta_element_set_no": 999,
        "meta_rev_at_epoch": 435,
        "meta_bstar": 0.00037242,
        "meta_mean_motion_dot": 0.00033863,
        "meta_mean_motion_ddot": 0,
        "tle_line1": "1 66515U 25246C   25346.15572269  .00033863  00000+0  37242-3 0  9992",
        "tle_line2": "2 66515  41.4775  19.6084 0006330 257.1600 102.8532 15.62436812  4355"
      },
      "geometry": {
        "type": "Point",
        "coordinates": [
          64.4859782456407,
          32.817232108981074
        ]
      }
    },
    {
      "type": "Feature",
      "properties": {
        "norad_id": 66645,
        "name": "SHENZHOU-22",
        "group": "stations",
        "lat": 19.416020760747582,
        "lon": 174.72906985292119,
        "alt_km": 389.9448628602013,
        "timestamp": "2025-12-12T11:38:30.189912+00:00",
        "meta_object_name": "SHENZHOU-22",
        "meta_object_id": "2025-272A",
        "meta_epoch": "2025-12-11T19:37:47.505216",
        "meta_mean_motion": 15.59116827,
        "meta_eccentricity": 0.00085427,
        "meta_inclination": 41.4685,
        "meta_ra_of_asc_node": 22.304,
        "meta_arg_of_pericenter": 22.5495,
        "meta_mean_anomaly": 337.5718,
        "meta_ephemeris_type": 0,
        "meta_classification_type": "U",
        "meta_norad_cat_id": 66645,
        "meta_element_set_no": 999,
        "meta_rev_at_epoch": 26357,
        "meta_bstar": 0.00035527983,
        "meta_mean_motion_dot": 0.00028382,
        "meta_mean_motion_ddot": 0,
        "tle_line1": "1 66645U 25272A   25345.81791094  .00028382  00000+0  35528-3 0  9991",
        "tle_line2": "2 66645  41.4685  22.3040 0008542  22.5495 337.5718 15.59116827263576"
      },
      "geometry": {
        "type": "Point",
        "coordinates": [
          174.72906985292119,
          19.416020760747582
        ]
      }
    },
    {
      "type": "Feature",
      "properties": {
        "norad_id": 66664,
        "name": "SOYUZ-MS 28",
        "group": "stations",
        "lat": 35.177787765519916,
        "lon": 177.68680622986747,
        "alt_km": 415.62436237948987,
        "timestamp": "2025-12-12T11:38:30.189921+00:00",
        "meta_object_name": "SOYUZ-MS 28",
        "meta_object_id": "2025-275A",
        "meta_epoch": "2025-12-11T21:30:28.324224",
        "meta_mean_motion": 15.49521399,
        "meta_eccentricity": 0.0003298,
        "meta_inclination": 51.6307,
        "meta_ra_of_asc_node": 146.6565,
        "meta_arg_of_pericenter": 237.1442,
        "meta_mean_anomaly": 122.9229,
        "meta_ephemeris_type": 0,
        "meta_classification_type": "U",
        "meta_norad_cat_id": 66664,
        "meta_element_set_no": 999,
        "meta_rev_at_epoch": 231,
        "meta_bstar": 0.00026381,
        "meta_mean_motion_dot": 0.00014378,
        "meta_mean_motion_ddot": 0,
        "tle_line1": "1 66664U 25275A   25345.89616116  .00014378  00000+0  26381-3 0  9991",
        "tle_line2": "2 66664  51.6307 146.6565 0003298 237.1442 122.9229 15.49521399  2311"
      },
      "geometry": {
        "type": "Point",
        "coordinates": [
          177.68680622986747,
          35.177787765519916
        ]
      }
    },
    {
      "type": "Feature",
      "properties": {
        "norad_id": 66906,
        "name": "1998-067XS",
        "group": "stations",
        "lat": 49.47318564231075,
        "lon": -148.37878168750248,
        "alt_km": 409.7702360755993,
        "timestamp": "2025-12-12T11:38:30.189932+00:00",
        "meta_object_name": "1998-067XS",
        "meta_object_id": "1998-067XS",
        "meta_epoch": "2025-12-11T19:50:50.396352",
        "meta_mean_motion": 15.50491702,
        "meta_eccentricity": 0.00036759,
        "meta_inclination": 51.6297,
        "meta_ra_of_asc_node": 146.9447,
        "meta_arg_of_pericenter": 198.3211,
        "meta_mean_anomaly": 161.7647,
        "meta_ephemeris_type": 0,
        "meta_classification_type": "U",
        "meta_norad_cat_id": 66906,
        "meta_element_set_no": 999,
        "meta_rev_at_epoch": 147,
        "meta_bstar": 0.00060264305,
        "meta_mean_motion_dot": 0.00034698,
        "meta_mean_motion_ddot": 0,
        "tle_line1": "1 66906U 98067XS  25345.82697218  .00034698  00000+0  60264-3 0  9999",
        "tle_line2": "2 66906  51.6297 146.9447 0003675 198.3211 161.7647 15.50491702  1478"
      },
      "geometry": {
        "type": "Point",
        "coordinates": [
          -148.37878168750248,
          49.47318564231075
        ]
      }
    },
    {
      "type": "Feature",
      "properties": {
        "norad_id": 66907,
        "name": "1998-067XT",
        "group": "stations",
        "lat": 51.61069843357734,
        "lon": -126.44194827544038,
        "alt_km": 407.83977115797006,
        "timestamp": "2025-12-12T11:38:30.189942+00:00",
        "meta_object_name": "1998-067XT",
        "meta_object_id": "1998-067XT",
        "meta_epoch": "2025-12-09T12:07:37.114752",
        "meta_mean_motion": 15.50864429,
        "meta_eccentricity": 0.00048036,
        "meta_inclination": 51.6307,
        "meta_ra_of_asc_node": 158.4423,
        "meta_arg_of_pericenter": 208.5081,
        "meta_mean_anomaly": 151.5646,
        "meta_ephemeris_type": 0,
        "meta_classification_type": "U",
        "meta_norad_cat_id": 66907,
        "meta_element_set_no": 999,
        "meta_rev_at_epoch": 111,
        "meta_bstar": 0.0012921241,
        "meta_mean_motion_dot": 0.00076342,
        "meta_mean_motion_ddot": 0,
        "tle_line1": "1 66907U 98067XT  25343.50529068  .00076342  00000+0  12921-2 0  9998",
        "tle_line2": "2 66907  51.6307 158.4423 0004803 208.5081 151.5646 15.50864429  1113"
      },
      "geometry": {
        "type": "Point",
        "coordinates": [
          -126.44194827544038,
          51.61069843357734
        ]
      }
    },
    {
      "type": "Feature",
      "properties": {
        "norad_id": 66908,
        "name": "1998-067XU",
        "group": "stations",
        "lat": 51.56339975729559,
        "lon": -123.04541205047795,
        "alt_km": 407.4525602279873,
        "timestamp": "2025-12-12T11:38:30.189952+00:00",
        "meta_object_name": "1998-067XU",
        "meta_object_id": "1998-067XU",
        "meta_epoch": "2025-12-11T19:47:12.664032",
        "meta_mean_motion": 15.51346926,
        "meta_eccentricity": 0.00046963,
        "meta_inclination": 51.6299,
        "meta_ra_of_asc_node": 146.928,
        "meta_arg_of_pericenter": 220.0254,
        "meta_mean_anomaly": 140.039,
        "meta_ephemeris_type": 0,
        "meta_classification_type": "U",
        "meta_norad_cat_id": 66908,
        "meta_element_set_no": 999,
        "meta_rev_at_epoch": 147,
        "meta_bstar": 0.0013269788,
        "meta_mean_motion_dot": 0.00079814,
        "meta_mean_motion_ddot": 0,
        "tle_line1": "1 66908U 98067XU  25345.82445213  .00079814  00000+0  13270-2 0  9990",
        "tle_line2": "2 66908  51.6299 146.9280 0004696 220.0254 140.0390 15.51346926  1474"
      },
      "geometry": {
        "type": "Point",
        "coordinates": [
          -123.04541205047795,
          51.56339975729559
        ]
      }
    }
  ]
}